KUZGTU 1 (RS47S)        
1 57217U 23091AV  26192.75360573  .00006575  00000+0  22585-3 0  9990
2 57217  97.5058 257.4908 0010453  18.5447 341.6172 15.30419627168136
SONATE-2                
1 59112U 24043Q   26192.39059297  .00029289  00000+0  35468-3 0  9993
2 59112  97.5544 344.3084 0006813 117.4206 242.7744 15.60605233131667
MESAT1                  
1 60209U 24125G   26192.60174960  .00040433  00000+0  39351-3 0  9991
2 60209  97.2263  50.6867 0010962 123.9142 236.3162 15.66096766113381
OOV-CUBE (TUBSAT-30)    
1 60240U 24128F   26192.40803188  .00001201  00000+0  10331-3 0  9995
2 60240  61.9942 141.1095 0041582 139.1306 221.2916 15.02864718109756
COLIBRI-S (RS67S)       
1 61746U 24199M   26192.75134561  .00013715  00000+0  25696-3 0  9998
2 61746  97.2967  66.8428 0008551 174.2376 185.8975 15.48749762141214
HORS 3 (RS81S)          
1 61753U 24199U   26192.72276489  .00022567  00000+0  31665-3 0  9997
2 61753  97.2946  69.0789 0006695 166.5266 193.6169 15.56725487141379
HORS 4 (RS82S)          
1 61754U 24199V   26192.73249610  .00032732  00000+0  37361-3 0  9999
2 61754  97.2889  70.4601 0006634 158.1977 201.9565 15.62123806141472
SIT-2086                
1 61764U 24199AF  26192.73084833  .00023279  00000+0  34985-3 0  9999
2 61764  97.2904  69.4783 0007807 155.1504 205.0128 15.54838115138244
HYPERVIEW 1G (RS66S)    
1 61772U 24199AP  26192.70503760  .00154252  00000+0  67801-3 0  9999
2 61772  97.2810  73.7984 0008228 154.4489 205.7189 15.84118087138541
ALTAIR (RS65S)          
1 61779U 24199AW  26192.78249690  .00005829  00000+0  16060-3 0  9999
2 61779  97.3005  61.9751 0011662 209.3971 150.6619 15.37460293140892
ASRTU-1 (AO-123)        
1 61781U 24199AY  26192.72764011  .00004778  00000+0  13820-3 0  9998
2 61781  97.2974  61.1793 0012647 213.8330 146.2109 15.36021395137694
SAMSAT-IONOSPHERE (RS7*)
1 61784U 24199BB  26192.71126352  .00031813  00000+0  39542-3 0  9999
2 61784  97.2912  69.2105 0008817 171.7237 188.4167 15.59879871141385
RTU MIREA 1 (RS51S)     
1 61785U 24199BC  26192.74083067  .00039955  00000+0  42372-3 0  9998
2 61785  97.2898  70.2095 0008916 166.1856 193.9649 15.63955200138304
TEVEL2-4                
1 63213U 25052D   26192.69245546  .00010971  00000+0  32035-3 0  9993
2 63213  97.3886  89.1357 0003837  58.4014 301.7604 15.35484284 73874
TEVEL2-5                
1 63214U 25052E   26192.65062918  .00011136  00000+0  32708-3 0  9991
2 63214  97.3876  89.0343 0003877  60.2304 299.9325 15.35297561 73862
TEVEL2-6                
1 63215U 25052F   26192.66351914  .00011163  00000+0  32824-3 0  9999
2 63215  97.3879  89.0323 0003848  63.3190 296.8447 15.35261289 73868
TEVEL2-1                
1 63217U 25052H   26192.70130582  .00010384  00000+0  31099-3 0  9999
2 63217  97.3853  88.6646 0004497  67.0289 293.1429 15.34696214 73854
TEVEL2-3                
1 63218U 25052J   26192.69500671  .00010066  00000+0  30100-3 0  9997
2 63218  97.3859  88.6837 0004262  68.4805 291.6893 15.34757646 73857
TEVEL2-2                
1 63219U 25052K   26192.70145763  .00010151  00000+0  30398-3 0  9991
2 63219  97.3852  88.6678 0004523  67.8714 292.3009 15.34706297 73859
OTP-2                   
1 63235U 25052AB  26192.64986825  .00004286  00000+0  17810-3 0  9990
2 63235  97.3846  84.7167 0008306  80.9023 279.3154 15.24307968 73590
TEVEL2-9                
1 63237U 25052AD  26192.64577432  .00009894  00000+0  31582-3 0  9994
2 63237  97.3918  87.9332 0007942  66.4852 293.7224 15.32659947 73779
TEVEL2-7                
1 63238U 25052AE  26192.69152907  .00008894  00000+0  28697-3 0  9998
2 63238  97.3917  87.8840 0008005  66.3968 293.8114 15.32345939 73772
TEVEL2-8                
1 63239U 25052AF  26192.70001789  .00009255  00000+0  29864-3 0  9991
2 63239  97.3915  87.8685 0008055  67.3029 292.9064 15.32332149 73775
INNOSAT 16 (RS92S7)     
1 64878U 25155C   26192.79534274  .00003603  00000+0  14396-3 0  9999
2 64878  97.4575 159.8508 0012484  98.5946 261.6707 15.25715792 84429
GEOSCAN 6 (RS92S6)      
1 64879U 25155D   26192.76646276  .00006244  00000+0  21336-3 0  9999
2 64879  97.4564 161.4231 0009989  91.7061 268.5324 15.30611460 84524
GEOSCAN 1 (RS92S1)      
1 64880U 25155E   26192.75895976  .00006675  00000+0  22340-3 0  9997
2 64880  97.4559 161.5856 0009954  91.9266 268.3116 15.31255262 84538
239ALFEROV (RS61S)      
1 64881U 25155F   26192.75750788  .00008802  00000+0  27299-3 0  9991
2 64881  97.4558 162.2309 0009644  91.5508 268.6839 15.33607127 84572
GEOSCAN 2 (RS92S2)      
1 64890U 25155Q   26192.74841178  .00006607  00000+0  21945-3 0  9997
2 64890  97.4558 161.7371 0009175  82.0919 278.1363 15.31513050 84549
GEOSCAN 5 (RS92S5)      
1 64891U 25155R   26192.74151021  .00008966  00000+0  27543-3 0  9999
2 64891  97.4551 162.3615 0008670  95.7962 264.4269 15.33913633 84589
GEOSCAN 4 (RS92S4)      
1 64892U 25155S   26192.72314871  .00009043  00000+0  27632-3 0  9998
2 64892  97.4555 162.3987 0008616  96.0907 264.1318 15.34080350 84583
