OBJECT_NAME,OBJECT_ID,EPOCH,MEAN_MOTION,ECCENTRICITY,INCLINATION,RA_OF_ASC_NODE,ARG_OF_PERICENTER,MEAN_ANOMALY,EPHEMERIS_TYPE,CLASSIFICATION_TYPE,NORAD_CAT_ID,ELEMENT_SET_NO,REV_AT_EPOCH,BSTAR,MEAN_MOTION_DOT,MEAN_MOTION_DDOT
KUZGTU 1 (RS47S),2023-091AV,2026-07-11T18:05:11.535072,15.30419627,.00104537,97.5058,257.4908,18.5447,341.6172,0,U,57217,999,16813,.22585412E-3,.6575E-4,0
SONATE-2,2024-043Q,2026-07-11T09:22:27.232608,15.60605233,.00068135,97.5544,344.3084,117.4206,242.7744,0,U,59112,999,13166,.35467523E-3,.29289E-3,0
MESAT1,2024-125G,2026-07-11T14:26:31.165440,15.66096766,.00109622,97.2263,50.6867,123.9142,236.3162,0,U,60209,999,11338,.39351413E-3,.40433E-3,0
OOV-CUBE (TUBSAT-30),2024-128F,2026-07-11T09:47:33.954432,15.02864718,.00415826,61.9942,141.1095,139.1306,221.2916,0,U,60240,999,10975,.10330684E-3,.1201E-4,0
COLIBRI-S (RS67S),2024-199M,2026-07-11T18:01:56.260704,15.48749762,.00085518,97.2967,66.8428,174.2376,185.8975,0,U,61746,999,14121,.25695886E-3,.13715E-3,0
HORS 3 (RS81S),2024-199U,2026-07-11T17:20:46.886496,15.56725487,.00066955,97.2946,69.0789,166.5266,193.6169,0,U,61753,999,14137,.31664851E-3,.22567E-3,0
HORS 4 (RS82S),2024-199V,2026-07-11T17:34:47.663040,15.62123806,.00066342,97.2889,70.4601,158.1977,201.9565,0,U,61754,999,14147,.37361434E-3,.32732E-3,0
SIT-2086,2024-199AF,2026-07-11T17:32:25.295712,15.54838115,.00078074,97.2904,69.4783,155.1504,205.0128,0,U,61764,999,13824,.34985261E-3,.23279E-3,0
HYPERVIEW 1G (RS66S),2024-199AP,2026-07-11T16:55:15.248640,15.84118087,.00082289,97.2810,73.7984,154.4489,205.7189,0,U,61772,999,13854,.67800704E-3,.154252E-2,0
ALTAIR (RS65S),2024-199AW,2026-07-11T18:46:47.732160,15.37460293,.00116622,97.3005,61.9751,209.3971,150.6619,0,U,61779,999,14089,.16059585E-3,.5829E-4,0
ASRTU-1 (AO-123),2024-199AY,2026-07-11T17:27:48.105504,15.36021395,.00126477,97.2974,61.1793,213.8330,146.2109,0,U,61781,999,13769,.13820484E-3,.4778E-4,0
SAMSAT-IONOSPHERE (RS75S),2024-199BB,2026-07-11T17:04:13.168128,15.59879871,.00088172,97.2912,69.2105,171.7237,188.4167,0,U,61784,999,14138,.39542206E-3,.31813E-3,0
RTU MIREA 1 (RS51S),2024-199BC,2026-07-11T17:46:47.769888,15.63955200,.00089165,97.2898,70.2095,166.1856,193.9649,0,U,61785,999,13830,.42371843E-3,.39955E-3,0
TEVEL2-4,2025-052D,2026-07-11T16:37:08.151744,15.35484284,.00038373,97.3886,89.1357,58.4014,301.7604,0,U,63213,999,7387,.32035103E-3,.10971E-3,0
TEVEL2-5,2025-052E,2026-07-11T15:36:54.361152,15.35297561,.00038771,97.3876,89.0343,60.2304,299.9325,0,U,63214,999,7386,.3270793E-3,.11136E-3,0
TEVEL2-6,2025-052F,2026-07-11T15:55:28.053696,15.35261289,.00038481,97.3879,89.0323,63.3190,296.8447,0,U,63215,999,7386,.32823927E-3,.11163E-3,0
TEVEL2-1,2025-052H,2026-07-11T16:49:52.822848,15.34696214,.00044973,97.3853,88.6646,67.0289,293.1429,0,U,63217,999,7385,.31099247E-3,.10384E-3,0
TEVEL2-3,2025-052J,2026-07-11T16:40:48.579744,15.34757646,.00042625,97.3859,88.6837,68.4805,291.6893,0,U,63218,999,7385,.3010029E-3,.10066E-3,0
TEVEL2-2,2025-052K,2026-07-11T16:50:05.939232,15.34706297,.00045235,97.3852,88.6678,67.8714,292.3009,0,U,63219,999,7385,.30397995E-3,.10151E-3,0
OTP-2,2025-052AB,2026-07-11T15:35:48.616800,15.24307968,.00083062,97.3846,84.7167,80.9023,279.3154,0,U,63235,999,7359,.17810231E-3,.4286E-4,0
TEVEL2-9,2025-052AD,2026-07-11T15:29:54.901248,15.32659947,.00079425,97.3918,87.9332,66.4852,293.7224,0,U,63237,999,7377,.31581625E-3,.9894E-4,0
TEVEL2-7,2025-052AE,2026-07-11T16:35:48.111648,15.32345939,.00080058,97.3917,87.8840,66.3968,293.8114,0,U,63238,999,7377,.28697099E-3,.8894E-4,0
TEVEL2-8,2025-052AF,2026-07-11T16:48:01.545696,15.32332149,.00080555,97.3915,87.8685,67.3029,292.9064,0,U,63239,999,7377,.29863864E-3,.9255E-4,0
INNOSAT 16 (RS92S7),2025-155C,2026-07-11T19:05:17.612736,15.25715792,.00124841,97.4575,159.8508,98.5946,261.6707,0,U,64878,999,8442,.14396366E-3,.3603E-4,0
GEOSCAN 6 (RS92S6),2025-155D,2026-07-11T18:23:42.382464,15.30611460,.00099898,97.4564,161.4231,91.7061,268.5324,0,U,64879,999,8452,.21335915E-3,.6244E-4,0
GEOSCAN 1 (RS92S1),2025-155E,2026-07-11T18:12:54.123264,15.31255262,.00099541,97.4559,161.5856,91.9266,268.3116,0,U,64880,999,8453,.22340077E-3,.6675E-4,0
239ALFEROV (RS61S),2025-155F,2026-07-11T18:10:48.680832,15.33607127,.00096445,97.4558,162.2309,91.5508,268.6839,0,U,64881,999,8457,.27298893E-3,.8802E-4,0
GEOSCAN 2 (RS92S2),2025-155Q,2026-07-11T17:57:42.777792,15.31513050,.00091751,97.4558,161.7371,82.0919,278.1363,0,U,64890,999,8454,.21944578E-3,.6607E-4,0
GEOSCAN 5 (RS92S5),2025-155R,2026-07-11T17:47:46.482144,15.33913633,.00086707,97.4551,162.3615,95.7962,264.4269,0,U,64891,999,8458,.27542606E-3,.8966E-4,0
GEOSCAN 4 (RS92S4),2025-155S,2026-07-11T17:21:20.048544,15.34080350,.00086163,97.4555,162.3987,96.0907,264.1318,0,U,64892,999,8458,.27631607E-3,.9043E-4,0
